     3.02           N: GNSS NAV DATA    G: GPS              RINEX VERSION / TYPE                                                
Версия от 220825                        20240401 02:14:14UTCPGM / RUN BY / DATE                                                 
GPUT  0.1862645149D-08 0.799360578D-14 503808 2307          TIME SYSTEM CORR
                                                            END OF HEADER                                                       
G22 2024 03 28 11 59 44 0.907713547349D-05-0.579802872380D-11 0.000000000000D+00
     0.700000000000D+02 0.104687500000D+03 0.457769067919D-08-0.203693345720D+00
     0.552460551262D-05 0.144112554845D-01 0.791624188423D-05 0.515371768379D+04
     0.388784000000D+06-0.152736902237D-06 0.114309477225D+01-0.141561031342D-06
     0.961642086699D+00 0.230687500000D+03-0.113780579528D+01-0.839892127736D-08
     0.253939149013D-09 0.100000000000D+01 0.230700000000D+04 0.000000000000D+00
     0.200000000000D+01 0.000000000000D+00-0.111758708954D-07 0.700000000000D+02
     0.384450000000D+06
G26 2024 03 28 11 59 44 0.174026936293D-03-0.477484718431D-11 0.000000000000D+00
     0.240000000000D+02 0.103281250000D+03 0.517628704170D-08 0.109507177551D+01
     0.566616654396D-05 0.884366757236D-02 0.830367207527D-05 0.515361562157D+04
     0.388784000000D+06-0.428408384323D-07 0.974568527400D+00 0.111758708954D-06
     0.931635474700D+00 0.203843750000D+03 0.539009710067D+00-0.844285167866D-08
     0.642883921553D-11 0.100000000000D+01 0.230700000000D+04 0.000000000000D+00
     0.200000000000D+01 0.000000000000D+00 0.698491930962D-08 0.240000000000D+02
     0.384600000000D+06
G27 2024 03 28 11 59 44-0.149593688548D-04-0.261479726760D-11 0.000000000000D+00
     0.250000000000D+02-0.553125000000D+01 0.485163066132D-08-0.659309627190D+00
    -0.165775418282D-06 0.125496832188D-01 0.176392495632D-05 0.515367375374D+04
     0.388784000000D+06 0.104308128357D-06 0.209366742890D+01 0.175088644028D-06
     0.962774344330D+00 0.344062500000D+03 0.776554863107D+00-0.864536011395D-08
    -0.163578242262D-09 0.100000000000D+01 0.230700000000D+04 0.000000000000D+00
     0.200000000000D+01 0.000000000000D+00 0.186264514923D-08 0.250000000000D+02
     0.381600000000D+06
G30 2024  3 28 11 59 44-0.413443427533D-03 0.545696821064D-11 0.000000000000D+00
     0.510000000000D+02-0.155625000000D+02 0.507521140293D-08 0.255751152591D+01
    -0.841915607452D-06 0.697132025380D-02 0.108312815428D-04 0.515367278671D+04
     0.388784000000D+06-0.614672899246D-07 0.816852640048D-02-0.175088644028D-06
     0.935912738488D+00 0.160343750000D+03-0.250238168046D+01-0.809105131048D-08
    -0.430732227440D-09 0.100000000000D+01 0.230700000000D+04 0.000000000000D+00
     0.200000000000D+01 0.000000000000D+00 0.372529029846D-08 0.510000000000D+02
     0.381600000000D+06
G31 2024 03 28 11 59 44-0.228019896895D-03 0.000000000000D+00 0.000000000000D+00
     0.230000000000D+02-0.117187500000D+02 0.464412201775D-08 0.183262072952D+01
    -0.571832060814D-06 0.105230761692D-01 0.109765678644D-04 0.515370256233D+04
     0.388784000000D+06-0.264495611191D-06 0.278933946490D-01 0.484287738800D-07
     0.954776443917D+00 0.169375000000D+03 0.665758995169D+00-0.796211736843D-08
    -0.433589489314D-09 0.100000000000D+01 0.230700000000D+04 0.000000000000D+00
     0.200000000000D+01 0.000000000000D+00-0.130385160446D-07 0.230000000000D+02
     0.381600000000D+06
G01 2024  3 28 12  0  0 0.176462344825D-03 0.216004991671D-11 0.000000000000D+00
     0.700000000000D+02-0.110062500000D+03 0.349121685177D-08 0.310953484319D+01
    -0.561028718948D-05 0.129802580923D-01 0.966154038906D-05 0.515401253319D+04
     0.388800000000D+06 0.577419996262D-07-0.311373763567D+01-0.819563865662D-07
     0.990966424426D+00 0.208343750000D+03 0.100453897167D+01-0.739673667520D-08
    -0.187864968187D-09 0.100000000000D+01 0.230700000000D+04 0.000000000000D+00
     0.280000000000D+01 0.100000000000D+01 0.512227416039D-08 0.700000000000D+02
     0.382782000000D+06
G02 2024 03 28 12 00 00-0.462914351374D-03 0.625277607469D-11 0.000000000000D+00
     0.182000000000D+03-0.100500000000D+03 0.414160108574D-08-0.464711976091D+00
    -0.527873635292D-05 0.160605491838D-01 0.886805355549D-05 0.515371054840D+04
     0.388800000000D+06-0.318512320519D-06 0.306411834807D+01 0.167638063431D-07
     0.967775518501D+00 0.216656250000D+03-0.121327709676D+01-0.817034032747D-08
    -0.159649507186D-09 0.100000000000D+01 0.230700000000D+04 0.000000000000D+00
     0.200000000000D+01 0.000000000000D+00-0.176951289177D-07 0.182000000000D+03
     0.381600000000D+06
G03 2024  3 28 12  0  0 0.278409570456D-03 0.220552465180D-10 0.000000000000D+00
     0.800000000000D+01 0.124062500000D+02 0.384730311276D-08 0.229610095492D+01
     0.674277544022D-06 0.523181527387D-02 0.101421028376D-04 0.515375460434D+04
     0.388800000000D+06 0.186264514923D-07-0.208598997630D+01-0.745058059692D-07
     0.983375494656D+00 0.194812500000D+03 0.106336723203D+01-0.760174521463D-08
     0.644669710224D-09 0.100000000000D+01 0.230700000000D+04 0.000000000000D+00
     0.200000000000D+01 0.000000000000D+00 0.186264514923D-08 0.800000000000D+01
     0.381600000000D+06
G04 2024 03 28 12 00 00 0.325545668602D-03 0.898126018001D-11 0.000000000000D+00
     0.235000000000D+03-0.165312500000D+02 0.487377444084D-08-0.103215797995D+01
    -0.916421413422D-06 0.279497972224D-02 0.473298132420D-05 0.515375960922D+04
     0.388800000000D+06 0.353902578354D-07-0.100645747024D+01-0.558793544769D-08
     0.964271640984D+00 0.287093750000D+03-0.295446081912D+01-0.822319967213D-08
     0.264296723305D-10 0.100000000000D+01 0.230700000000D+04 0.000000000000D+00
     0.200000000000D+01 0.000000000000D+00-0.465661287308D-08 0.100300000000D+04
     0.381600000000D+06
G05 2024 03 28 12 00 00-0.167051795870D-03-0.136424205266D-11 0.000000000000D+00
     0.570000000000D+02 0.640625000000D+01 0.415588739511D-08-0.381427935730D+00
     0.443309545517D-06 0.570231035817D-02 0.958703458309D-05 0.515358481598D+04
     0.388800000000D+06-0.242143869400D-07-0.213654474149D+01 0.577419996262D-07
     0.970386953083D+00 0.201125000000D+03 0.123138722383D+01-0.788818571746D-08
     0.546451333320D-09 0.100000000000D+01 0.230700000000D+04 0.000000000000D+00
     0.200000000000D+01 0.000000000000D+00-0.107102096081D-07 0.570000000000D+02
     0.381600000000D+06
G06 2024 03 28 12 00 00 0.348107423633D-03-0.170530256582D-10 0.000000000000D+00
     0.114000000000D+03-0.994375000000D+02 0.360407869577D-08-0.272000802620D+01
    -0.510737299919D-05 0.310258800164D-02 0.900030136108D-05 0.515359449196D+04
     0.388800000000D+06 0.949949026108D-07-0.312215649954D+01 0.279396772385D-07
     0.990057710918D+00 0.223625000000D+03-0.717307649348D+00-0.763424656844D-08
    -0.224652214809D-09 0.100000000000D+01 0.230700000000D+04 0.000000000000D+00
     0.200000000000D+01 0.000000000000D+00 0.419095158577D-08 0.114000000000D+03
     0.381600000000D+06
G07 2024  3 28 12  0  0-0.945264473558D-04-0.864019966684D-11 0.000000000000D+00
     0.610000000000D+02-0.191562500000D+02 0.462912139291D-08 0.269302458854D+01
    -0.110082328320D-05 0.182290025987D-01 0.109486281872D-04 0.515365798760D+04
     0.388800000000D+06 0.800937414169D-07 0.666087374927D-02-0.271946191788D-06
     0.950777887967D+00 0.161000000000D+03-0.213899729001D+01-0.765853329437D-08
    -0.483234414367D-09 0.100000000000D+01 0.230700000000D+04 0.000000000000D+00
     0.200000000000D+01 0.000000000000D+00-0.111758708954D-07 0.610000000000D+02
     0.381618000000D+06
G08 2024 03 28 12 00 00 0.858153216541D-04 0.251247911365D-10 0.000000000000D+00
     0.270000000000D+02-0.231250000000D+01 0.496270671665D-08-0.751376452771D+00
    -0.968575477600D-07 0.945333088748D-02 0.137090682983D-05 0.515360589409D+04
     0.388800000000D+06 0.201165676117D-06 0.206770304681D+01-0.223517417908D-07
     0.953774012950D+00 0.348625000000D+03 0.345546954241D+00-0.865643200371D-08
    -0.137505727665D-09 0.100000000000D+01 0.230700000000D+04 0.000000000000D+00
     0.200000000000D+01 0.000000000000D+00 0.465661287308D-08 0.270000000000D+02
     0.381600000000D+06
G09 2024  3 28 12  0  0 0.140239484608D-03 0.133013600134D-10 0.000000000000D+00
     0.960000000000D+02-0.125000000000D+02 0.506521098637D-08-0.303809035392D+00
    -0.888481736183D-06 0.269140966702D-02 0.475533306599D-05 0.515368903732D+04
     0.388800000000D+06 0.558793544769D-08-0.106554021251D+01-0.372529029846D-08
     0.957774633078D+00 0.285593750000D+03 0.200823096352D+01-0.837106297409D-08
     0.707172313708D-10 0.100000000000D+01 0.230700000000D+04 0.000000000000D+00
     0.200000000000D+01 0.000000000000D+00 0.931322574616D-09 0.960000000000D+02
     0.381600000000D+06
G10 2024 03 28 12 00 00-0.327499583363D-05-0.306954461848D-11 0.000000000000D+00
     0.160000000000D+02 0.169062500000D+02 0.397623705481D-08 0.124205271001D+01
     0.886619091034D-06 0.930536957458D-02 0.962242484093D-05 0.515368651962D+04
     0.388800000000D+06-0.147148966789D-06-0.208856326676D+01 0.540167093277D-07
     0.983052018600D+00 0.205968750000D+03-0.236726851380D+01-0.779996775711D-08
     0.449661587353D-09 0.100000000000D+01 0.230700000000D+04 0.000000000000D+00
     0.200000000000D+01 0.000000000000D+00 0.232830643654D-08 0.160000000000D+02
     0.381600000000D+06
G11 2024 03 28 12 00 00-0.620152335614D-03-0.111413100967D-10 0.000000000000D+00
     0.156000000000D+03-0.912812500000D+02 0.411088552060D-08-0.150153484191D+01
    -0.472739338875D-05 0.121699576266D-02 0.912882387638D-05 0.515368612099D+04
     0.388800000000D+06 0.800937414169D-07-0.308778106263D+01-0.119209289551D-06
     0.966528632460D+00 0.209812500000D+03-0.250719224225D+01-0.785282710177D-08
    -0.191079387795D-09 0.100000000000D+01 0.230700000000D+04 0.000000000000D+00
     0.200000000000D+01 0.000000000000D+00-0.838190317154D-08 0.412000000000D+03
     0.381600000000D+06
